[{"OBJECT_ID":"2004-023D","OBJECT_NAME":"DELTA 2 DEB","NORAD_CAT_ID":"29422","OBJECT_TYPE":"DEBRIS","PERIOD":"155.786","INCLINATION":"38.8517","ECCENTRICITY":"0.31550880","MEAN_MOTION":"9.24343925","TLE_LINE1":"1 29422U 04023D   21272.44092949  .00057937  31799-6  31294-3 0  9991","TLE_LINE2":"2 29422  38.8517 359.6615 3155088 350.9392   4.5139  9.24343925384692"},{"OBJECT_ID":"1989-039CQ","OBJECT_NAME":"SL-12 DEB","NORAD_CAT_ID":"29441","OBJECT_TYPE":"DEBRIS","PERIOD":"196.488","INCLINATION":"62.6803","ECCENTRICITY":"0.36423690","MEAN_MOTION":"7.32870266","TLE_LINE1":"1 29441U 89039CQ  21271.46302214 -.00020274  00000-0 -92005-1 0  9998","TLE_LINE2":"2 29441  62.6803 312.9182 3642369 100.3319 301.9471  7.32870266357295"},{"OBJECT_ID":"1984-035D","OBJECT_NAME":"CZ-3 DEB","NORAD_CAT_ID":"29445","OBJECT_TYPE":"DEBRIS","PERIOD":"575.210","INCLINATION":"30.0502","ECCENTRICITY":"0.70067670","MEAN_MOTION":"2.50343546","TLE_LINE1":"1 29445U 84035D   21270.09846816  .00000155  00000-0  10163-2 0  9992","TLE_LINE2":"2 29445  30.0502 159.7300 7006767 232.7762  40.9252  2.50343546147076"},{"OBJECT_ID":"1984-035E","OBJECT_NAME":"CZ-3 DEB","NORAD_CAT_ID":"29446","OBJECT_TYPE":"DEBRIS","PERIOD":"578.243","INCLINATION":"30.4343","ECCENTRICITY":"0.69871550","MEAN_MOTION":"2.49030425","TLE_LINE1":"1 29446U 84035E   21270.85006773  .00000169  00000-0  30233-2 0  9992","TLE_LINE2":"2 29446  30.4343 164.9564 6987155 206.2954  88.1377  2.49030425 85914"},{"OBJECT_ID":"1986-010G","OBJECT_NAME":"CZ-3 DEB","NORAD_CAT_ID":"29448","OBJECT_TYPE":"DEBRIS","PERIOD":"602.912","INCLINATION":"30.5363","ECCENTRICITY":"0.70911210","MEAN_MOTION":"2.38840665","TLE_LINE1":"1 29448U 86010G   21271.18380827 -.00000142  00000-0 -64152-3 0  9992","TLE_LINE2":"2 29448  30.5363 265.7070 7091121 155.6859 268.5270  2.38840665158260"},{"OBJECT_ID":"1989-039CT","OBJECT_NAME":"SL-12 DEB","NORAD_CAT_ID":"29449","OBJECT_TYPE":"DEBRIS","PERIOD":"341.749","INCLINATION":"61.5636","ECCENTRICITY":"0.50180020","MEAN_MOTION":"4.21362324","TLE_LINE1":"1 29449U 89039CT  21256.48338137 -.00000038  00000-0  00000+0 0  9991","TLE_LINE2":"2 29449  61.5636 346.5958 5018002 107.4791 356.6026  4.21362324233678"},{"OBJECT_ID":"1989-039DD","OBJECT_NAME":"SL-12 DEB","NORAD_CAT_ID":"29459","OBJECT_TYPE":"DEBRIS","PERIOD":"184.764","INCLINATION":"67.7958","ECCENTRICITY":"0.34321380","MEAN_MOTION":"7.79374589","TLE_LINE1":"1 29459U 89039DD  21264.21730968 -.00002836  00000-0 -82440-2 0  9990","TLE_LINE2":"2 29459  67.7958 244.3211 3432138  28.5968 346.6278  7.79374589 32956"},{"OBJECT_ID":"2006-051C","OBJECT_NAME":"BREEZE-M DEB (TANK)","NORAD_CAT_ID":"29528","OBJECT_TYPE":"DEBRIS","PERIOD":"395.326","INCLINATION":"51.3035","ECCENTRICITY":"0.59946420","MEAN_MOTION":"3.64256567","TLE_LINE1":"1 29528U 06051C   21272.00191380 -.00000050  00000-0 -27428-3 0  9997","TLE_LINE2":"2 29528  51.3035 243.1739 5994642 305.7034 305.6739  3.64256567198134"},{"OBJECT_ID":"1990-065X","OBJECT_NAME":"CRRES DEB (CANISTER)","NORAD_CAT_ID":"29530","OBJECT_TYPE":"DEBRIS","PERIOD":"590.216","INCLINATION":"17.8248","ECCENTRICITY":"0.71274500","MEAN_MOTION":"2.43978306","TLE_LINE1":"1 29530U 90065X   21270.75264914  .00001269  00000-0  10951-2 0  9995","TLE_LINE2":"2 29530  17.8248  82.2828 7127450 131.3985 316.4201  2.43978306 76627"},{"OBJECT_ID":"1990-065Y","OBJECT_NAME":"CRRES DEB (CANISTER)","NORAD_CAT_ID":"29531","OBJECT_TYPE":"DEBRIS","PERIOD":"585.533","INCLINATION":"17.9729","ECCENTRICITY":"0.71068560","MEAN_MOTION":"2.45929832","TLE_LINE1":"1 29531U 90065Y   21271.43635631  .00000426  00000-0  58726-3 0  9997","TLE_LINE2":"2 29531  17.9729  45.5149 7106856 216.3815  63.1417  2.45929832139665"},{"OBJECT_ID":"1990-065Z","OBJECT_NAME":"CRRES DEB (CANISTER)","NORAD_CAT_ID":"29532","OBJECT_TYPE":"DEBRIS","PERIOD":"560.054","INCLINATION":"17.5406","ECCENTRICITY":"0.70251640","MEAN_MOTION":"2.57118269","TLE_LINE1":"1 29532U 90065Z   21269.17873826  .00000229  00000-0  28678-3 0  9990","TLE_LINE2":"2 29532  17.5406 200.9907 7025164 225.1961  50.1295  2.57118269 87653"},{"OBJECT_ID":"1990-065AA","OBJECT_NAME":"CRRES DEB (CANISTER)","NORAD_CAT_ID":"29533","OBJECT_TYPE":"DEBRIS","PERIOD":"573.974","INCLINATION":"17.8611","ECCENTRICITY":"0.70731110","MEAN_MOTION":"2.50882248","TLE_LINE1":"1 29533U 90065AA  21266.23461359  .00000451  00000-0  47001-3 0  9997","TLE_LINE2":"2 29533  17.8611 318.6300 7073111  12.7857 358.5867  2.50882248201519"},{"OBJECT_ID":"2006-056B","OBJECT_NAME":"BREEZE-M DEB (TANK)","NORAD_CAT_ID":"29649","OBJECT_TYPE":"DEBRIS","PERIOD":"286.234","INCLINATION":"49.4667","ECCENTRICITY":"0.53636740","MEAN_MOTION":"5.03084641","TLE_LINE1":"1 29649U 06056B   21271.06630441  .00004937  00000-0  81615-3 0  9991","TLE_LINE2":"2 29649  49.4667 163.3812 5363674  62.5367 341.6025  5.03084641266236"},{"OBJECT_ID":"1968-081J","OBJECT_NAME":"TITAN 3C TRANSTAGE DEB","NORAD_CAT_ID":"30000","OBJECT_TYPE":"DEBRIS","PERIOD":"1427.015","INCLINATION":"3.0032","ECCENTRICITY":"0.01137880","MEAN_MOTION":"1.00909924","TLE_LINE1":"1 30000U 68081J   21272.01081006 -.00000411  00000-0  00000+0 0  9992","TLE_LINE2":"2 30000   3.0032 308.7989 0113788  12.9078 161.9057  1.00909924 61811"},{"OBJECT_ID":"1999-025WY","OBJECT_NAME":"FENGYUN 1C DEB","NORAD_CAT_ID":"30239","OBJECT_TYPE":"DEBRIS","PERIOD":"129.238","INCLINATION":"99.5149","ECCENTRICITY":"0.14604430","MEAN_MOTION":"11.14226449","TLE_LINE1":"1 30239U 99025WY  21271.63880054  .00012769  00000-0  41954-1 0  9998","TLE_LINE2":"2 30239  99.5149 211.6528 1460443 119.3053 256.1791 11.14226449589170"},{"OBJECT_ID":"2007-009B","OBJECT_NAME":"BREEZE-M DEB (TANK)","NORAD_CAT_ID":"31103","OBJECT_TYPE":"DEBRIS","PERIOD":"301.077","INCLINATION":"49.4464","ECCENTRICITY":"0.54992900","MEAN_MOTION":"4.78282895","TLE_LINE1":"1 31103U 07009B   21270.93907905  .00000819  00000-0  23634-3 0  9997","TLE_LINE2":"2 31103  49.4464 251.9150 5499290 141.8458 274.1412  4.78282895247314"},{"OBJECT_ID":"1979-101H","OBJECT_NAME":"SATCOM 3 DEB","NORAD_CAT_ID":"31138","OBJECT_TYPE":"DEBRIS","PERIOD":"786.650","INCLINATION":"7.6860","ECCENTRICITY":"0.48889010","MEAN_MOTION":"1.83054631","TLE_LINE1":"1 31138U 79101H   21268.32828002 -.00000097  00000-0  00000-0 0  9995","TLE_LINE2":"2 31138   7.6860 233.9303 4888901 189.5642 317.7100  1.83054631 99043"},{"OBJECT_ID":"2007-032B","OBJECT_NAME":"BREEZE-M DEB (TANK)","NORAD_CAT_ID":"31863","OBJECT_TYPE":"DEBRIS","PERIOD":"260.722","INCLINATION":"45.9448","ECCENTRICITY":"0.49692080","MEAN_MOTION":"5.52311772","TLE_LINE1":"1 31863U 07032B   21271.30675363  .00000159  00000-0  19252-3 0  9996","TLE_LINE2":"2 31863  45.9448  32.3170 4969208 339.9195   5.9411  5.52311772285895"},{"OBJECT_ID":"2006-006C","OBJECT_NAME":"BREEZE-M DEB","NORAD_CAT_ID":"32025","OBJECT_TYPE":"DEBRIS","PERIOD":"274.446","INCLINATION":"51.6816","ECCENTRICITY":"0.51190900","MEAN_MOTION":"5.24692801","TLE_LINE1":"1 32025U 06006C   21271.12118229  .00000096  00000-0  20416-3 0  9994","TLE_LINE2":"2 32025  51.6816 314.5118 5119090 189.0523 156.2251  5.24692801279385"},{"OBJECT_ID":"2006-006D","OBJECT_NAME":"BREEZE-M DEB","NORAD_CAT_ID":"32026","OBJECT_TYPE":"DEBRIS","PERIOD":"219.096","INCLINATION":"51.2114","ECCENTRICITY":"0.41312820","MEAN_MOTION":"6.57245155","TLE_LINE1":"1 32026U 06006D   21271.06952505 -.00000882  00000-0 -35601-2 0  9997","TLE_LINE2":"2 32026  51.2114 104.8277 4131282 310.3054 290.1620  6.57245155323935"},{"OBJECT_ID":"2006-006F","OBJECT_NAME":"BREEZE-M DEB","NORAD_CAT_ID":"32028","OBJECT_TYPE":"DEBRIS","PERIOD":"276.034","INCLINATION":"51.6839","ECCENTRICITY":"0.51084460","MEAN_MOTION":"5.21674043","TLE_LINE1":"1 32028U 06006F   21270.85582049  .00000896  00000-0  15090-2 0  9990","TLE_LINE2":"2 32028  51.6839  76.9450 5108446  89.8896 326.0399  5.21674043273877"},{"OBJECT_ID":"2006-006G","OBJECT_NAME":"BREEZE-M DEB","NORAD_CAT_ID":"32029","OBJECT_TYPE":"DEBRIS","PERIOD":"274.997","INCLINATION":"51.5830","ECCENTRICITY":"0.51532900","MEAN_MOTION":"5.23641559","TLE_LINE1":"1 32029U 06006G   21270.38050301  .00000291  00000-0  26062-3 0  9991","TLE_LINE2":"2 32029  51.5830 303.7526 5153290 214.7985  97.0690  5.23641559277790"},{"OBJECT_ID":"2006-006H","OBJECT_NAME":"BREEZE-M DEB","NORAD_CAT_ID":"32030","OBJECT_TYPE":"DEBRIS","PERIOD":"255.289","INCLINATION":"51.7516","ECCENTRICITY":"0.49331690","MEAN_MOTION":"5.64067707","TLE_LINE1":"1 32030U 06006H   21271.43899562  .00001544  00000-0  71418-3 0  9997","TLE_LINE2":"2 32030  51.7516  15.8868 4933169  35.1993 349.1505  5.64067707290961"},{"OBJECT_ID":"2006-006J","OBJECT_NAME":"BREEZE-M DEB","NORAD_CAT_ID":"32031","OBJECT_TYPE":"DEBRIS","PERIOD":"278.928","INCLINATION":"51.4063","ECCENTRICITY":"0.50913960","MEAN_MOTION":"5.16261378","TLE_LINE1":"1 32031U 06006J   21271.20368784  .00000122  00000-0  35254-3 0  9999","TLE_LINE2":"2 32031  51.4063 113.3766 5091396 113.4316 307.0248  5.16261378275163"},{"OBJECT_ID":"2006-006K","OBJECT_NAME":"BREEZE-M DEB","NORAD_CAT_ID":"32032","OBJECT_TYPE":"DEBRIS","PERIOD":"250.327","INCLINATION":"51.5590","ECCENTRICITY":"0.47281240","MEAN_MOTION":"5.75247561","TLE_LINE1":"1 32032U 06006K   21272.21026929 -.00002464  00000-0 -53791-2 0  9992","TLE_LINE2":"2 32032  51.5590 349.3008 4728124 115.3177 300.3556  5.75247561298415"},{"OBJECT_ID":"2006-006L","OBJECT_NAME":"BREEZE-M DEB","NORAD_CAT_ID":"32033","OBJECT_TYPE":"DEBRIS","PERIOD":"273.990","INCLINATION":"51.6846","ECCENTRICITY":"0.51064390","MEAN_MOTION":"5.25567020","TLE_LINE1":"1 32033U 06006L   21268.80734508  .00000333  00000-0  49761-3 0  9996","TLE_LINE2":"2 32033  51.6846 325.4972 5106439 181.5237 176.0624  5.25567020278454"},{"OBJECT_ID":"2006-006M","OBJECT_NAME":"BREEZE-M DEB","NORAD_CAT_ID":"32034","OBJECT_TYPE":"DEBRIS","PERIOD":"275.268","INCLINATION":"51.6913","ECCENTRICITY":"0.51177340","MEAN_MOTION":"5.23125795","TLE_LINE1":"1 32034U 06006M   21268.85633159 -.00000035  00000-0  84739-4 0  9997","TLE_LINE2":"2 32034  51.6913 335.4494 5117734 173.9970 196.0180  5.23125795277960"}]